stk.v.8.0

BEGIN Ephemeris

NumberOfEphemerisPoints 5829
CoordinateSystem Custom RIC Satellite/Origin

EphemerisTimePosVel

4315.000000 -422.297054 -1323.268827 -92.824829 0.932039 0.006090 0.062813
4316.000000 -422.359867 -1322.336788 -92.830919 0.932174 0.005982 0.062276
4317.000000 -422.422143 -1321.404614 -92.836902 0.932309 0.005875 0.061738
4318.000000 -422.483881 -1320.472305 -92.842776 0.932442 0.005767 0.061201
4319.000000 -422.545082 -1319.539863 -92.848543 0.932574 0.005659 0.060664
4320.000000 -422.605746 -1318.607289 -92.854202 0.932705 0.005551 0.060126
4321.000000 -422.665872 -1317.674585 -92.859752 0.932834 0.005443 0.059589
4322.000000 -422.725461 -1316.741750 -92.865195 0.932963 0.005335 0.059051
4323.000000 -422.784512 -1315.808788 -92.870530 0.933090 0.005227 0.058513
4324.000000 -422.843025 -1314.875698 -92.875758 0.933216 0.005119 0.057975
4325.000000 -422.901000 -1313.942482 -92.880877 0.933341 0.005011 0.057437
4326.000000 -422.958438 -1313.009140 -92.885888 0.933465 0.004903 0.056900
4327.000000 -423.015337 -1312.075676 -92.890791 0.933588 0.004795 0.056362
4328.000000 -423.071699 -1311.142088 -92.895587 0.933709 0.004687 0.055823
4329.000000 -423.127522 -1310.208379 -92.900274 0.933830 0.004579 0.055285
4330.000000 -423.182807 -1309.274549 -92.904854 0.933949 0.004472 0.054747
4331.000000 -423.237555 -1308.340600 -92.909325 0.934067 0.004364 0.054209
4332.000000 -423.291763 -1307.406534 -92.913689 0.934184 0.004256 0.053671
4333.000000 -423.345434 -1306.472350 -92.917944 0.934299 0.004148 0.053132
4334.000000 -423.398566 -1305.538051 -92.922092 0.934414 0.004040 0.052594
4335.000000 -423.451160 -1304.603637 -92.926132 0.934527 0.003932 0.052055
4336.000000 -423.503215 -1303.669109 -92.930063 0.934640 0.003824 0.051517
4337.000000 -423.554732 -1302.734470 -92.933887 0.934751 0.003716 0.050978
4338.000000 -423.605709 -1301.799719 -92.937603 0.934861 0.003608 0.050439
4339.000000 -423.656149 -1300.864859 -92.941210 0.934969 0.003500 0.049900
4340.000000 -423.706049 -1299.929890 -92.944710 0.935077 0.003392 0.049362
4341.000000 -423.755411 -1298.994813 -92.948102 0.935183 0.003284 0.048823
4342.000000 -423.804234 -1298.059629 -92.951385 0.935289 0.003176 0.048284
4343.000000 -423.852518 -1297.124341 -92.954561 0.935393 0.003068 0.047745
4344.000000 -423.900263 -1296.188948 -92.957629 0.935496 0.002960 0.047206
4345.000000 -423.947468 -1295.253453 -92.960588 0.935597 0.002852 0.046667
4346.000000 -423.994135 -1294.317855 -92.963440 0.935698 0.002744 0.046128
4347.000000 -424.040263 -1293.382157 -92.966183 0.935797 0.002636 0.045588
4348.000000 -424.085851 -1292.446360 -92.968819 0.935896 0.002527 0.045049
4349.000000 -424.130900 -1291.510464 -92.971346 0.935993 0.002419 0.044510
4350.000000 -424.175410 -1290.574471 -92.973766 0.936089 0.002311 0.043970
4351.000000 -424.219380 -1289.638383 -92.976077 0.936184 0.002203 0.043431
4352.000000 -424.262812 -1288.702199 -92.978281 0.936277 0.002095 0.042892
4353.000000 -424.305703 -1287.765922 -92.980376 0.936370 0.001987 0.042352
4354.000000 -424.348055 -1286.829552 -92.982363 0.936461 0.001879 0.041812
4355.000000 -424.389868 -1285.893091 -92.984242 0.936551 0.001771 0.041273
4356.000000 -424.431140 -1284.956540 -92.986014 0.936640 0.001663 0.040733
4357.000000 -424.471874 -1284.019900 -92.987677 0.936728 0.001555 0.040193
4358.000000 -424.512067 -1283.083172 -92.989232 0.936815 0.001447 0.039654
4359.000000 -424.551721 -1282.146357 -92.990679 0.936900 0.001339 0.039114
4360.000000 -424.590835 -1281.209457 -92.992018 0.936984 0.001231 0.038574
4361.000000 -424.629409 -1280.272473 -92.993248 0.937068 0.001123 0.038034
4362.000000 -424.667443 -1279.335405 -92.994371 0.937150 0.001015 0.037494
4363.000000 -424.704937 -1278.398255 -92.995386 0.937230 0.000907 0.036954
4364.000000 -424.741891 -1277.461025 -92.996293 0.937310 0.000799 0.036414
4365.000000 -424.778305 -1276.523715 -92.997091 0.937389 0.000691 0.035874
4366.000000 -424.814180 -1275.586326 -92.997782 0.937466 0.000582 0.035334
4367.000000 -424.849514 -1274.648860 -92.998364 0.937542 0.000474 0.034794
4368.000000 -424.884307 -1273.711318 -92.998838 0.937617 0.000366 0.034254
4369.000000 -424.918561 -1272.773701 -92.999205 0.937691 0.000258 0.033713
4370.000000 -424.952274 -1271.836010 -92.999463 0.937764 0.000150 0.033173
4371.000000 -424.985447 -1270.898246 -92.999613 0.937835 0.000042 0.032633
4372.000000 -425.018080 -1269.960411 -92.999655 0.937906 -0.000066 0.032092
4373.000000 -425.050173 -1269.022505 -92.999589 0.937975 -0.000174 0.031552
4374.000000 -425.081725 -1268.084530 -92.999415 0.938043 -0.000282 0.031012
4375.000000 -425.112736 -1267.146487 -92.999133 0.938110 -0.000390 0.030471
4376.000000 -425.143207 -1266.208378 -92.998743 0.938175 -0.000498 0.029931
4377.000000 -425.173138 -1265.270202 -92.998244 0.938240 -0.000606 0.029390
4378.000000 -425.202528 -1264.331963 -92.997638 0.938303 -0.000714 0.028849
4379.000000 -425.231377 -1263.393659 -92.996923 0.938365 -0.000823 0.028309
4380.000000 -425.259686 -1262.455294 -92.996101 0.938427 -0.000931 0.027768
4381.000000 -425.287454 -1261.516867 -92.995170 0.938486 -0.001039 0.027228
4382.000000 -425.314682 -1260.578381 -92.994132 0.938545 -0.001147 0.026687
4383.000000 -425.341369 -1259.639836 -92.992985 0.938603 -0.001255 0.026146
4384.000000 -425.367515 -1258.701233 -92.991730 0.938659 -0.001363 0.025605
4385.000000 -425.393120 -1257.762574 -92.990367 0.938714 -0.001471 0.025065
4386.000000 -425.418185 -1256.823860 -92.988896 0.938768 -0.001579 0.024524
4387.000000 -425.442708 -1255.885092 -92.987317 0.938821 -0.001687 0.023983
4388.000000 -425.466691 -1254.946271 -92.985630 0.938873 -0.001795 0.023442
4389.000000 -425.490133 -1254.007398 -92.983835 0.938923 -0.001903 0.022901
4390.000000 -425.513034 -1253.068474 -92.981932 0.938973 -0.002011 0.022360
4391.000000 -425.535394 -1252.129502 -92.979921 0.939021 -0.002119 0.021819
4392.000000 -425.557213 -1251.190481 -92.977801 0.939068 -0.002227 0.021278
4393.000000 -425.578491 -1250.251413 -92.975574 0.939114 -0.002335 0.020737
4394.000000 -425.599228 -1249.312299 -92.973239 0.939159 -0.002443 0.020196
4395.000000 -425.619424 -1248.373140 -92.970795 0.939202 -0.002551 0.019655
4396.000000 -425.639079 -1247.433938 -92.968244 0.939244 -0.002660 0.019114
4397.000000 -425.658193 -1246.494694 -92.965584 0.939286 -0.002768 0.018573
4398.000000 -425.676766 -1245.555408 -92.962816 0.939326 -0.002876 0.018032
4399.000000 -425.694797 -1244.616082 -92.959941 0.939365 -0.002984 0.017490
4400.000000 -425.712288 -1243.676718 -92.956957 0.939402 -0.003092 0.016949
4401.000000 -425.729237 -1242.737315 -92.953866 0.939439 -0.003200 0.016408
4402.000000 -425.745645 -1241.797877 -92.950666 0.939474 -0.003308 0.015867
4403.000000 -425.761512 -1240.858402 -92.947358 0.939508 -0.003416 0.015326
4404.000000 -425.776837 -1239.918894 -92.943942 0.939541 -0.003524 0.014784
4405.000000 -425.791622 -1238.979352 -92.940419 0.939573 -0.003632 0.014243
4406.000000 -425.805865 -1238.039779 -92.936787 0.939604 -0.003740 0.013702
4407.000000 -425.819567 -1237.100175 -92.933047 0.939634 -0.003848 0.013160
4408.000000 -425.832727 -1236.160541 -92.929199 0.939662 -0.003956 0.012619
4409.000000 -425.845346 -1235.220879 -92.925244 0.939689 -0.004064 0.012078
4410.000000 -425.857424 -1234.281190 -92.921180 0.939715 -0.004172 0.011536
4411.000000 -425.868960 -1233.341475 -92.917008 0.939740 -0.004280 0.010995
4412.000000 -425.879955 -1232.401735 -92.912728 0.939764 -0.004388 0.010454
4413.000000 -425.890409 -1231.461971 -92.908341 0.939786 -0.004496 0.009912
4414.000000 -425.900321 -1230.522185 -92.903845 0.939808 -0.004604 0.009371
4415.000000 -425.909692 -1229.582377 -92.899241 0.939828 -0.004712 0.008829
4416.000000 -425.918521 -1228.642549 -92.894530 0.939847 -0.004820 0.008288
4417.000000 -425.926809 -1227.702702 -92.889710 0.939865 -0.004928 0.007747
4418.000000 -425.934556 -1226.762837 -92.884783 0.939882 -0.005035 0.007205
4419.000000 -425.941761 -1225.822956 -92.879747 0.939897 -0.005143 0.006664
4420.000000 -425.948424 -1224.883058 -92.874604 0.939911 -0.005251 0.006122
4421.000000 -425.954546 -1223.943147 -92.869352 0.939925 -0.005359 0.005581
4422.000000 -425.960127 -1223.003222 -92.863993 0.939937 -0.005467 0.005039
4423.000000 -425.965166 -1222.063286 -92.858526 0.939948 -0.005575 0.004498
4424.000000 -425.969664 -1221.123338 -92.852951 0.939957 -0.005683 0.003956
4425.000000 -425.973620 -1220.183381 -92.847268 0.939966 -0.005791 0.003415
4426.000000 -425.977035 -1219.243415 -92.841477 0.939973 -0.005899 0.002873
4427.000000 -425.979908 -1218.303442 -92.835578 0.939979 -0.006007 0.002332
4428.000000 -425.982239 -1217.363463 -92.829571 0.939984 -0.006115 0.001790
4429.000000 -425.984029 -1216.423478 -92.823456 0.939988 -0.006222 0.001249
4430.000000 -425.985278 -1215.483490 -92.817234 0.939991 -0.006330 0.000707
4431.000000 -425.985985 -1214.543499 -92.810904 0.939992 -0.006438 0.000166
4432.000000 -425.986151 -1213.603507 -92.804465 0.939993 -0.006546 -0.000376
4433.000000 -425.985775 -1212.663514 -92.797919 0.939992 -0.006654 -0.000917
4434.000000 -425.984857 -1211.723522 -92.791265 0.939990 -0.006762 -0.001459
4435.000000 -425.983398 -1210.783532 -92.784504 0.939987 -0.006870 -0.002001
4436.000000 -425.981398 -1209.843545 -92.777634 0.939983 -0.006977 -0.002542
4437.000000 -425.978856 -1208.903563 -92.770657 0.939977 -0.007085 -0.003084
4438.000000 -425.975772 -1207.963586 -92.763571 0.939970 -0.007193 -0.003625
4439.000000 -425.972147 -1207.023615 -92.756378 0.939963 -0.007301 -0.004167
4440.000000 -425.967980 -1206.083653 -92.749077 0.939954 -0.007409 -0.004708
4441.000000 -425.963272 -1205.143699 -92.741669 0.939943 -0.007516 -0.005250
4442.000000 -425.958023 -1204.203756 -92.734152 0.939932 -0.007624 -0.005791
END Ephemeris